[Satellite]
VERSION=1.1
NAME=STARLINK-5273
NICKNAME=STARLINK-5273
TLE1=1 54162U 22141F   22321.58334491 -.01140315  00000+0 -11470-1 0  9995
TLE2=2 54162  53.2178  42.3162 0001226  65.2183  25.9066 15.67299770  1305
STATUS=0
